ONEWEB-0018             
1 45434U 20020L   25080.54916610  .00000085  00000+0  20372-3 0  9990
2 45434  87.8809 111.2984 0001972  90.8260 269.3094 13.11415373243306
ONEWEB-0083             
1 45435U 20020M   25080.84418034  .00000498  00000+0  13690-2 0  9993
2 45435  87.8810 111.2232 0001848  94.9238 265.2101 13.11416642243390
ONEWEB-0095             
1 45436U 20020N   25080.53066505  .00000589  00000+0  16265-2 0  9994
2 45436  87.8808 111.3140 0001346 111.7146 248.4125 13.11415371243348
ONEWEB-0092             
1 45437U 20020P   25080.57883795 -.00000394  00000+0 -11478-2 0  9994
2 45437  87.8810 111.2911 0001773  98.6916 261.4413 13.11418579243460
ONEWEB-0085             
1 45438U 20020Q   25080.53221124  .00000583  00000+0  16077-2 0  9991
2 45438  87.8810 111.3105 0001946  91.0615 269.0736 13.11418118243340
ONEWEB-0096             
1 45439U 20020R   25080.54069134  .00000513  00000+0  14119-2 0  9992
2 45439  87.8808 111.2756 0002171  91.2181 268.9195 13.11417353243336
ONEWEB-0037             
1 45440U 20020S   25080.52205162  .00000436  00000+0  11946-2 0  9994
2 45440  87.8806 111.2472 0001891  97.4904 262.6438 13.11417024243369
ONEWEB-0042             
1 45441U 20020T   25080.83557215  .00000656  00000+0  18158-2 0  9994
2 45441  87.8808 111.2282 0002047  96.0924 264.0437 13.11415981243389
